INTELSAT 11 (IS-11) [PM]
1 32253C 07044B   22109.85395833 -.00003916  00000-0  00000-0 0  1091
2 32253   0.0344  62.7274 0002049 339.6909  69.9386  1.00272874    13
INTELSAT 11 (IS-11)     
1 32253C 07044B   22111.00000000 -.00003662  00000-0  00000-0 0  1111
2 32253   0.0001 184.6310 0002077 220.9871 120.4466  1.00272391    15
HORIZONS-2              
1 32388C 07063B   22108.00000000 -.00000099  00000-0  00000-0 0  1084
2 32388   0.0218 108.7310 0002883 283.4770 258.7427  1.00271834    11
HORIZONS-2              
1 32388C 07063B   22111.00000000 -.00000101  00000-0  00000-0 0  1116
2 32388   0.0120  18.6610 0002857  17.2963 257.9493  1.00271620    10
HORIZONS-2          [PM]
1 32388C 07063B   22111.46526620 -.00000090  00000-0  00000-0 0  1114
2 32388   0.0157 298.6798 0002997  97.4909  65.6886  1.00270358    19
GALAXY 18 (G-18)        
1 32951C 08024A   22108.00000000 -.00005070  00000-0  00000-0 0  1082
2 32951   0.0000 266.0220 0003239 133.3455  43.7310  1.00272878    15
GALAXY 18 (G-18)    [PM]
1 32951C 08024A   22109.59305556 -.00003778  00000-0  00000-0 0  1095
2 32951   0.0346  66.8334 0003249 332.4631 258.8785  1.00270343    19
GALAXY 18 (G-18)        
1 32951C 08024A   22111.00000000 -.00003306  00000-0  00000-0 0  1110
2 32951   0.0158 132.3535 0003269 269.6613  44.0397  1.00270170    17
GALAXY 18 (G-18)    [PM]
1 32951C 08024A   22111.19444444  .00000110  00000-0  00000-0 0  1113
2 32951   0.0167 130.5125 0003294 272.0608 113.6708  1.00270214    10
INTELSAT 25 (IS-25)     
1 33153C 08034A   22108.00000000 -.00000147  00000-0  00000-0 0  1088
2 33153   0.0101 242.0342 0003548 162.6611 129.9105  1.00271816    13
INTELSAT 25 (IS-25) [PM]
1 33153C 08034A   22110.84270833 -.00000134  00000-0  00000-0 0  1105
2 33153   0.0121 184.6801 0003548 207.9461  88.1475  1.00271913    16
INTELSAT 25 (IS-25)     
1 33153C 08034A   22111.00000000 -.00000142  00000-0  00000-0 0  1111
2 33153   0.0061 207.1527 0003534 197.3866 133.0134  1.00271946    19
GALAXY 19 (G-19)        
1 33376C 08045A   22108.00000000 -.00000049  00000-0  00000-0 0  1088
2 33376   0.0288 275.8563 0003224 128.4200  64.8225  1.00270595    13
GALAXY 19 (G-19)    [PM]
1 33376C 08045A   22110.58833333 -.00000049  00000-0  00000-0 0  1100
2 33376   0.0179 275.6922 0003183 116.4553 291.2972  1.00271624    10
GALAXY 19 (G-19)        
1 33376C 08045A   22111.00000000 -.00000049  00000-0  00000-0 0  1116
2 33376   0.0162 274.2553 0003159 118.7461  79.0490  1.00271203    13
INTELSAT 14 (IS-14)     
1 36097C 09064A   22108.00000000 -.00003312  00000-0  00000-0 0  1089
2 36097   0.0016 261.5478 0002781 138.2642 121.2902  1.00272254    12
INTELSAT 14 (IS-14) [PM]
1 36097C 09064A   22110.83788194 -.00003527  00000-0  00000-0 0  1101
2 36097   0.0016 186.2715 0002842 217.7404  61.5247  1.00271981    10
INTELSAT 14 (IS-14)     
1 36097C 09064A   22111.00000000 -.00003631  00000-0  00000-0 0  1111
2 36097   0.0000 184.7185 0002843 219.7313 119.6090  1.00271970    18
INTELSAT 15 (IS-15)     
1 36106C 09067A   22108.00000000 -.00000087  00000-0  00000-0 0  1089
2 36106   0.0183 355.0450 0002496  41.9688 254.2348  1.00272164    11
INTELSAT 15 (IS-15)     
1 36106C 09067A   22111.00000000 -.00000098  00000-0  00000-0 0  1119
2 36106   0.0159 307.8822 0002594  96.6654 249.6453  1.00270202    17
INTELSAT 15 (IS-15) [PM]
1 36106C 09067A   22111.50094907 -.00000098  00000-0  00000-0 0  1113
2 36106   0.0144 308.9396 0002544  93.2440  72.8418  1.00271935    11
INTELSAT 16 (IS-16)     
1 36397C 10006A   22108.00000000 -.00000188  00000-0  00000-0 0  1088
2 36397   0.0071 137.1088 0002111 259.7049  93.0883  1.00271638    17
INTELSAT 16 (IS-16)     
1 36397C 10006A   22111.00000000 -.00000155  00000-0  00000-0 0  1110
2 36397   0.0137 300.2515 0002056 106.5636  86.0331  1.00269834    12
INTELSAT 16 (IS-16) [PM]
1 36397C 10006A   22111.06158565 -.00000155  00000-0  00000-0 0  1116
2 36397   0.0136 300.6769 0002100 102.2372 112.1652  1.00272168    17
INTELSAT 17 (IS-17)     
1 37238C 10065B   22108.00000000  .00000088  00000-0  00000-0 0  1086
2 37238   0.0173 229.0374 0002742 170.7610 232.3000  1.00274551    16
INTELSAT 17 (IS-17) [PM]
1 37238C 10065B   22110.08005787  .00000088  00000-0  00000-0 0  1107
2 37238   0.0146 210.6216 0002774 188.3597 263.9997  1.00269788    12
INTELSAT 17 (IS-17)     
1 37238C 10065B   22111.00000000  .00000089  00000-0  00000-0 0  1115
2 37238   0.0164 197.5887 0002789 203.4696 234.0019  1.00269737    12
INTELSAT NEW DAWN       
1 37392C 11016A   22108.00000000  .00000297  00000-0  00000-0 0  1086
2 37392   0.0071 221.3852 0001241 231.4658 146.0622  1.00269968    17
INTELSAT NEW DAWN       
1 37392C 11016A   22111.00000000  .00000220  00000-0  00000-0 0  1110
2 37392   0.0171 163.2423 0001498 294.8818 143.7324  1.00271150    10
INTELSAT NEW DAWN   [PM]
1 37392C 11016A   22114.16569444  .00000246  00000-0  00000-0 0  1143
2 37392   0.0136 198.8725 0000982 243.3018 222.4456  1.00268411    15
INTELSAT 18 (IS-18)     
1 37834C 11056A   22108.00000000  .00000142  00000-0  00000-0 0  1080
2 37834   0.0384 353.7096 0002018  42.0125 350.3762  1.00273028    10
INTELSAT 18 (IS-18)     
1 37834C 11056A   22111.00000000  .00000214  00000-0  00000-0 0  1118
2 37834   0.0364  34.9927 0002112 358.1376 355.9303  1.00269570    12
INTELSAT 18 (IS-18) [PM]
1 37834C 11056A   22114.19228009  .00000142  00000-0  00000-0 0  1145
2 37834   0.0287 351.9491 0001911  44.4613  64.9990  1.00271253    19
INTELSAT 22 (IS-22)     
1 38098C 12011A   22108.00000000  .00000031  00000-0  00000-0 0  1082
2 38098   0.0365  97.9305 0002984 297.5577 242.7157  1.00272476    10
INTELSAT 22 (IS-22) [PM]
1 38098C 12011A   22110.98777778  .00000031  00000-0  00000-0 0  1108
2 38098   0.0078 267.0258 0002753 133.0625 236.6627  1.00270128    16
INTELSAT 22 (IS-22)     
1 38098C 12011A   22111.00000000  .00000031  00000-0  00000-0 0  1110
2 38098   0.0080 266.8901 0002748 133.2330 241.0398  1.00270127    14
INTELSAT 19 (IS-19)     
1 38356C 12030A   22108.00000000 -.00004013  00000-0  00000-0 0  1085
2 38356   0.0408  55.7893 0003498 344.6287 331.6778  1.00272569    12
INTELSAT 19 (IS-19)     
1 38356C 12030A   22111.00000000 -.00004291  00000-0  00000-0 0  1111
2 38356   0.0156 131.4082 0003515 271.8727 331.7759  1.00270757    11
INTELSAT 19 (IS-19) [PM]
1 38356C 12030A   22118.24200232 -.00003515  00000-0  00000-0 0  1188
2 38356   0.0481  67.2955 0002973 329.4438  72.5565  1.00271818    17
INTELSAT 20 (IS-20)     
1 38740C 12043A   22104.00000000  .00000066  00000-0  00000-0 0  1041
2 38740   0.0114 183.2909 0001047  16.6433  70.7246  1.00270409    17
INTELSAT 20 (IS-20)     
1 38740C 12043A   22108.00000000 -.00003946  00000-0  00000-0 0  1080
2 38740   0.0082 181.6834 0001415 359.4295  93.4807  1.00270774    13
INTELSAT 20 (IS-20) [PM]
1 38740C 12043A   22111.74930556  .00000065  00000-0  00000-0 0  1115
2 38740   0.0218 142.4632 0001382  35.3324  10.2413  1.00271258    19
INTELSAT 21 (IS-21)     
1 38749C 12045A   22108.00000000 -.00000262  00000-0  00000-0 0  1089
2 38749   0.0020 277.9305 0002435 119.8896 110.2804  1.00271922    15
INTELSAT 21 (IS-21) [PM]
1 38749C 12045A   22110.84991898 -.00003648  00000-0  00000-0 0  1102
2 38749   0.0271  82.7051 0002428 316.4509  57.7168  1.00273107    16
INTELSAT 21 (IS-21)     
1 38749C 12045A   22111.00000000 -.00000195  00000-0  00000-0 0  1112
2 38749   0.0010 176.5369 0002425 223.0945 111.4189  1.00273145    18
INTELSAT 23 (IS-23)     
1 38867C 12057A   22108.00000000 -.00000195  00000-0  00000-0 0  1088
2 38867   0.0603  92.9759 0000261 133.3218 286.7800  1.00273799    14
INTELSAT 23 (IS-23)     
1 38867C 12057A   22111.00000000 -.00000195  00000-0  00000-0 0  1116
2 38867   0.0620  99.6878 0000872  79.2975 337.0393  1.00242476    10
INTELSAT 23 (IS-23) [PM]
1 38867C 12057A   22111.07243056 -.00000195  00000-0  00000-0 0  1113
2 38867   0.0627  97.2100 0001151 259.1769 185.7782  1.00272704    17
INTELSAT 30 (IS-30)     
1 40271C 14062A   22103.95918982 -.00000082  00000-0  00000-0 0  1034
2 40271   0.0070 240.2941 0001561 245.6325 326.4346  1.00270372    16
INTELSAT 30 (IS-30)     
1 40271C 14062A   22108.00000000 -.00000072  00000-0  00000-0 0  1082
2 40271   0.0087 271.6518 0001838 212.5859 346.8011  1.00270507    19
INTELSAT 30 (IS-30) [PM]
1 40271C 14062A   22110.25283565 -.00000074  00000-0  00000-0 0  1106
2 40271   0.0019 247.8344 0001836 188.8932 127.5531  1.00272290    13
INTELSAT 34 (IS-34)     
1 40874C 15039A   22104.00000000 -.00000195  00000-0  00000-0 0  1044
2 40874   0.0205 292.0935 0000341 236.1653 338.3974  1.00269226    12
INTELSAT 34 (IS-34)     
1 40874C 15039A   22108.00000000 -.00000195  00000-0  00000-0 0  1082
2 40874   0.0262 312.7085 0000641 197.6471   0.2472  1.00271130    18
INTELSAT 34 (IS-34) [PM]
1 40874C 15039A   22112.33151620 -.00000193  00000-0  00000-0 0  1121
2 40874   0.0181 306.4129 0000558 188.8904 138.9085  1.00272436    16
INTELSAT 31 (IS-31)     
1 41581C 16035A   22104.00000000 -.00000061  00000-0  00000-0 0  1049
2 41581   0.0173 228.8440 0002182 352.1367 246.1281  1.00269422    11
INTELSAT 31 (IS-31)     
1 41581C 16035A   22108.00000000 -.00000061  00000-0  00000-0 0  1087
2 41581   0.0126 243.2292 0002059 326.9406 260.8790  1.00270551    14
INTELSAT 31 (IS-31) [PM]
1 41581C 16035A   22111.23502315 -.00000061  00000-0  00000-0 0  1116
2 41581   0.0120 225.6315 0001943 338.2206 354.9822  1.00272258    10
INTELSAT 36 (IS-36)     
1 41747C 16053A   22104.00000000 -.00003938  00000-0  00000-0 0  1049
2 41747   0.0089 274.9157 0001481  74.6633 281.0796  1.00270436    17
INTELSAT 36 (IS-36)     
1 41747C 16053A   22108.00000000  .00000081  00000-0  00000-0 0  1082
2 41747   0.0196 317.6351 0001288  42.1782 274.7879  1.00271337    19
